NORAD_CAT_ID,OBJECT_NAME,OBJECT_TYPE,EPOCH,MEAN_MOTION,ECCENTRICITY,INCLINATION,RA_OF_ASC_NODE,ARG_OF_PERICENTER,MEAN_ANOMALY,BSTAR,MEAN_MOTION_DOT,MEAN_MOTION_DDOT,TLE_LINE0,TLE_LINE1,TLE_LINE2,SEMIMAJOR_AXIS,PERIOD,APOGEE,PERIGEE,DECAYED
53925.0,STARLINK-5011,PAYLOAD,2022-10-27 18:00:00,15.73213002,0.0001886999999999,53.2159,90.7342,42.1418,187.892,0.00036245,0.00050584,0.0,0 STARLINK-5011,1 53925U 22119AR  22300.75001157  .00050584  00000-0  36245-3 0  9997,2 53925  53.2159  90.7342 0001887  42.1418 187.8920 15.73213002  5598,6727.858,91.532,350.99300000000005,348.454,0.0
53925.0,STARLINK-5011,PAYLOAD,2022-10-27 22:00:00,15.73258698,0.0001875999999999,53.2159,89.9096,37.5681,56.9432,-7.2243e-05,-0.00010773,0.0,0 STARLINK-5011,1 53925U 22119AR  22300.91667824 -.00010773  00000-0 -72243-4 0  9991,2 53925  53.2159  89.9096 0001876  37.5681  56.9432 15.73258698  1301,6727.728,91.53,350.855,348.331,0.0
53925.0,STARLINK-5011,PAYLOAD,2022-10-28 06:00:00,15.73220504,0.0001617,53.2162,88.2579,35.3409,148.1786,-0.00019455,-0.00027859,0.0,0 STARLINK-5011,1 53925U 22119AR  22301.25001157 -.00027859  00000-0 -19455-3 0  9998,2 53925  53.2162  88.2579 0001617  35.3409 148.1786 15.73220504  5675,6727.837,91.532,350.79,348.61400000000015,0.0
53925.0,STARLINK-5011,PAYLOAD,2022-10-28 14:00:01,15.73175109,0.0001825,53.2163,86.6095,35.3761,237.1437,0.00022696,0.00031318,0.0,0 STARLINK-5011,1 53925U 22119AR  22301.58335648  .00031318  00000-0  22696-3 0  9993,2 53925  53.2163  86.6095 0001825  35.3761 237.1437 15.73175109  1301,6727.965999999999,91.535,351.059,348.603,0.0
53925.0,STARLINK-5011,PAYLOAD,2022-10-28 22:00:01,15.73224653,0.0001983,53.2157,84.9611,29.121,332.3040000000001,-0.00019466,-0.00027881,0.0,0 STARLINK-5011,1 53925U 22119AR  22301.91668981 -.00027881  00000-0 -19466-3 0  9992,2 53925  53.2157  84.9611 0001983  29.1210 332.3040 15.73224653  1312,6727.825,91.532,351.024,348.356,0.0
53925.0,STARLINK-5011,PAYLOAD,2022-10-29 04:00:00,15.73199007,0.0001776999999999,53.216,83.7224,33.7552,304.3288,-0.00015854,-0.0002281,0.0,0 STARLINK-5011,1 53925U 22119AR  22302.16667824 -.00022810  00000-0 -15854-3 0  9999,2 53925  53.2160  83.7224 0001777  33.7552 304.3288 15.73199007  5810,6727.898,91.533,350.959,348.56699999999995,0.0
53925.0,STARLINK-5011,PAYLOAD,2022-10-29 12:00:00,15.73210692,0.0001851,53.2162,82.0733,35.7361,31.2611,0.00044931,0.00062942,0.0,0 STARLINK-5011,1 53925U 22119AR  22302.50001157  .00062942  00000-0  44931-3 0  9994,2 53925  53.2162  82.0733 0001851  35.7361  31.2611 15.73210692  1302,6727.865,91.533,350.975,348.4840000000001,0.0
53925.0,STARLINK-5011,PAYLOAD,2022-10-29 22:00:01,15.73221991,0.00021,53.2161,80.0127,28.276,239.9771,0.00029119,0.00040484,0.0,0 STARLINK-5011,1 53925U 22119AR  22302.91668981  .00040484  00000-0  29119-3 0  9991,2 53925  53.2161  80.0127 0002100  28.2760 239.9771 15.73221991  1302,6727.831999999999,91.532,351.11,348.285,0.0
53925.0,STARLINK-5011,PAYLOAD,2022-10-30 00:00:00,15.73253901,0.0002065999999999,53.2163,79.5999,27.7496,352.6711,-0.00014007,-0.00020279,0.0,0 STARLINK-5011,1 53925U 22119AR  22303.00001157 -.00020279  00000-0 -14007-3 0  9990,2 53925  53.2163  79.5999 0002066  27.7496 352.6711 15.73253901  5942,6727.7419999999975,91.53,350.996,348.217,0.0
53925.0,STARLINK-5011,PAYLOAD,2022-10-30 14:00:01,15.73177514,0.000208,53.2164,76.7131,24.8615,61.2547,-0.00040785,-0.00057421,0.0,0 STARLINK-5011,1 53925U 22119AR  22303.58334491 -.00057421  00000-0 -40785-3 0  9994,2 53925  53.2164  76.7131 0002080  24.8615  61.2547 15.73177514  1308,6727.959,91.534,351.224,348.425,0.0
53925.0,STARLINK-5011,PAYLOAD,2022-10-30 22:00:01,15.731488199999998,0.0002255999999999,53.2158,75.0642,23.2455,151.817,9.4312e-05,0.00012607,0.0,0 STARLINK-5011,1 53925U 22119AR  22303.91668981  .00012607  00000-0  94312-4 0  9996,2 53925  53.2158  75.0642 0002256  23.2455 151.8170 15.73148820  1306,6728.041,91.536,351.4240000000001,348.38800000000015,0.0
53925.0,STARLINK-5011,PAYLOAD,2022-10-31 14:00:01,15.73175245,0.0002289,53.216,71.7651,26.4936,326.2666,0.00016806,0.00023006,0.0,0 STARLINK-5011,1 53925U 22119AR  22304.58334491  .00023006  00000-0  16806-3 0  9992,2 53925  53.2160  71.7651 0002289  26.4936 326.2666 15.73175245  1306,6727.965999999999,91.535,351.371,348.291,0.0
53925.0,STARLINK-5011,PAYLOAD,2022-10-31 22:00:01,15.73199521,0.0002366,53.216,70.1158,20.1558,61.578,-5.8456e-05,-8.818e-05,0.0,0 STARLINK-5011,1 53925U 22119AR  22304.91668981 -.00008818  00000-0 -58456-4 0  9997,2 53925  53.2160  70.1158 0002366  20.1558  61.5780 15.73199521  6256,6727.897,91.533,351.353,348.17,0.0
53925.0,STARLINK-5011,PAYLOAD,2022-11-01 14:00:01,15.73217372,0.0002427,53.2162,66.8166,17.8542,241.6459,0.00011197,0.00015134,0.0,0 STARLINK-5011,1 53925U 22119AR  22305.58334491  .00015134  00000-0  11197-3 0  9994,2 53925  53.2162  66.8166 0002427  17.8542 241.6459 15.73217372  1303,6727.846,91.532,351.343,348.07800000000015,0.0
53925.0,STARLINK-5011,PAYLOAD,2022-11-01 22:00:00,15.73254562,0.0002532,53.2158,65.167,16.4191,332.0394,-0.00056874,-0.00079887,0.0,0 STARLINK-5011,1 53925U 22119AR  22305.91667824 -.00079887  00000-0 -56874-3 0  9998,2 53925  53.2158  65.1670 0002532  16.4191 332.0394 15.73254562  6403,6727.74,91.53,351.30800000000005,347.901,0.0
53925.0,STARLINK-5011,PAYLOAD,2022-11-02 14:00:01,15.7315908,0.0002605,53.2162,61.8662,15.2622,151.0701,1.2506e-05,1.131e-05,0.0,0 STARLINK-5011,1 53925U 22119AR  22306.58334491  .00001131  00000-0  12506-4 0  9993,2 53925  53.2162  61.8662 0002605  15.2622 151.0701 15.73159080  1303,6728.012,91.536,351.629,348.124,0.0
53925.0,STARLINK-5011,PAYLOAD,2022-11-02 22:00:00,15.73182458,0.0002712,53.2161,60.2183,16.5548,238.63,0.00040635,0.00056758,0.0,0 STARLINK-5011,1 53925U 22119AR  22306.91667824  .00056758  00000-0  40635-3 0  9997,2 53925  53.2161  60.2183 0002712  16.5548 238.6300 15.73182458  1305,6727.945,91.534,351.635,347.986,0.0
53925.0,STARLINK-5011,PAYLOAD,2022-11-03 06:00:02,15.73202534,0.0002341,53.217,58.5458,19.7953,324.4257,1.7681e-05,1.861e-05,0.0,0 STARLINK-5011,1 53925U 22119AR  22307.25002315  .00001861  00000-0  17681-4 0  9994,2 53925  53.2170  58.5458 0002341  19.7953 324.4257 15.73202534  6615,6727.888000000001,91.533,351.32800000000015,348.17800000000005,0.0
53925.0,STARLINK-5011,PAYLOAD,2022-11-03 14:00:01,15.73266617,0.0002931,53.2165,56.9193,21.2797,51.8346,-9.3441e-05,-0.00013756,0.0,0 STARLINK-5011,1 53925U 22119AR  22307.58334491 -.00013756  00000-0 -93441-4 0  9999,2 53925  53.2165  56.9193 0002931  21.2797  51.8346 15.73266617  1309,6727.705,91.529,351.542,347.598,0.0
53925.0,STARLINK-5011,PAYLOAD,2022-11-03 22:00:00,15.73286872,0.000289,53.2162,55.2692,16.563,145.5502,-0.00055944,-0.00078716,0.0,0 STARLINK-5011,1 53925U 22119AR  22307.91667824 -.00078716  00000-0 -55944-3 0  9997,2 53925  53.2162  55.2692 0002890  16.5630 145.5502 15.73286872  1309,6727.648,91.528,351.457,347.5680000000001,0.0
53925.0,STARLINK-5011,PAYLOAD,2022-11-04 14:00:01,15.73314338,0.000269,53.2165,51.9581,13.9173,326.1403,-0.0031498,-0.00423378,0.0,0 STARLINK-5011,1 53925U 22119AR  22308.58334491 -.00423378  00000-0 -31498-2 0  9997,2 53925  53.2165  51.9581 0002690  13.9173 326.1403 15.73314338  6821,6727.569,91.527,351.244,347.624,0.0
53925.0,STARLINK-5011,PAYLOAD,2022-11-04 22:00:01,15.73226432,0.0002996,53.2168,50.3201,8.7355,60.3908,-0.00068979,-0.00096464,0.0,0 STARLINK-5011,1 53925U 22119AR  22308.91668981 -.00096464  00000-0 -68979-3 0  9995,2 53925  53.2168  50.3201 0002996   8.7355  60.3908 15.73226432  6889,6727.82,91.532,351.7,347.6690000000001,0.0
53925.0,STARLINK-5011,PAYLOAD,2022-11-05 14:00:01,15.73089631,0.0003278,53.2173,47.0221,15.0353,231.841,6.7035e-05,8.753e-05,0.0,0 STARLINK-5011,1 53925U 22119AR  22309.58335648  .00008753  00000-0  67035-4 0  9995,2 53925  53.2173  47.0221 0003278  15.0353 231.8410 15.73089631  1306,6728.21,91.54,352.28,347.869,0.0
53925.0,STARLINK-5011,PAYLOAD,2022-11-05 22:00:01,15.73119317,0.0003234,53.2171,45.3721,13.1266,322.5432,0.00029701,0.00041131,0.0,0 STARLINK-5011,1 53925U 22119AR  22309.91668981  .00041131  00000-0  29701-3 0  9995,2 53925  53.2171  45.3721 0003234  13.1266 322.5432 15.73119317  7037,6728.125,91.538,352.166,347.814,0.0
53925.0,STARLINK-5011,PAYLOAD,2022-11-06 14:00:01,15.73282293,0.0003319,53.2172,42.0746,10.8667,142.4811,-0.00021647,-0.00031009,0.0,0 STARLINK-5011,1 53925U 22119AR  22310.58334491 -.00031009  00000-0 -21647-3 0  9992,2 53925  53.2172  42.0746 0003319  10.8667 142.4811 15.73282293  7148,6727.661,91.528,351.7580000000001,347.293,0.0
53925.0,STARLINK-5011,PAYLOAD,2022-11-07 22:00:00,15.732309099999998,0.0003528,53.2165,35.4753,5.4321,143.8448,-0.00045644,-0.00064304,0.0,0 STARLINK-5011,1 53925U 22119AR  22311.91667824 -.00064304  00000-0 -45644-3 0  9996,2 53925  53.2165  35.4753 0003528   5.4321 143.8448 15.73230910  7356,6727.807,91.531,352.046,347.298,0.0
53925.0,STARLINK-5011,PAYLOAD,2022-11-08 06:00:00,15.73222198,0.0003389,53.2167,33.8251,8.3413,229.9252,0.00067911,0.00095894,0.0,0 STARLINK-5011,1 53925U 22119AR  22312.25001157  .00095894  00000-0  67911-3 0  9992,2 53925  53.2167  33.8251 0003389   8.3413 229.9252 15.73222198  7406,6727.831999999999,91.532,351.977,347.417,0.0
53925.0,STARLINK-5011,PAYLOAD,2022-11-08 12:00:00,15.73295452,0.0003658,53.2165,32.5897,7.815,207.1861,-0.00053709,-0.00075666,0.0,0 STARLINK-5011,1 53925U 22119AR  22312.50001157 -.00075666  00000-0 -53709-3 0  9997,2 53925  53.2165  32.5897 0003658   7.8150 207.1861 15.73295452  7448,6727.623000000001,91.528,351.949,347.027,0.0
53925.0,STARLINK-5011,PAYLOAD,2022-11-08 14:00:01,15.73276369,0.0003717,53.2166,32.1776,7.6863,319.5748,-0.00040462,-0.00057235,0.0,0 STARLINK-5011,1 53925U 22119AR  22312.58334491 -.00057235  00000-0 -40462-3 0  9999,2 53925  53.2166  32.1776 0003717   7.6863 319.5748 15.73276369  1303,6727.677,91.529,352.043,347.042,0.0
